TIANMU-1 08             
1 57400U 23101B   26066.00237819  .00000346  00000+0  14775-4 0  9993
2 57400  97.2717 118.7901 0006380 134.2174 225.9592 15.29204229146020
STARLINK-34223          
1 64336U 25124V   26068.81796389  .00025547  00000+0  93483-3 0  9991
2 64336  42.9923 117.2018 0000917 311.0752  49.0020 15.27573927 41849
